start=new Date('2022-08-28T00:00:00.000Z').valueOf();
sats=[{"LAUNCH_DATE":"2022-05-13","ELEMENT_SET_NO":"999","NORAD_CAT_ID":"52586","REV_AT_EPOCH":"130","FILE":"3548882","EPHEMERIS_TYPE":"0","SITE":"AFWTR","SEMIMAJOR_AXIS":"6917.778","TIME_SYSTEM":"UTC","MEAN_ELEMENT_THEORY":"SGP4","TLE_LINE2":"2 52586  53.2180 149.1251 0002141  65.9760 349.9478 15.08873623  1302","EPOCH":"2022-08-27T22:00:00.999936","RA_OF_ASC_NODE":"149.1251","ECCENTRICITY":"0.00021410","MEAN_MOTION":"15.08873623","RCS_SIZE":"LARGE","OBJECT_TYPE":"PAYLOAD","CLASSIFICATION_TYPE":"U","GP_ID":"211139250","DECAY_DATE":null,"MEAN_MOTION_DOT":"-0.00031002","APOAPSIS":"541.124","REF_FRAME":"TEME","INCLINATION":"53.2180","PERIAPSIS":"538.162","MEAN_ANOMALY":"349.9478","OBJECT_ID":"2022-051BC","PERIOD":"95.435","ARG_OF_PERICENTER":"65.9760","COUNTRY_CODE":"US","MEAN_MOTION_DDOT":"0.0000000000000","BSTAR":"-0.00193630000000","OBJECT_NAME":"STARLINK-3910","TLE_LINE1":"1 52586U 22051BC  22239.91667824 -.00031002  00000-0 -19363-2 0  9999","CENTER_NAME":"EARTH"},{"CENTER_NAME":"EARTH","TLE_LINE1":"1 52587U 22051BD  22239.91667824 -.00041617  00000-0 -26093-2 0  9991","OBJECT_NAME":"STARLINK-3867","BSTAR":"-0.00260930000000","MEAN_MOTION_DDOT":"0.0000000000000","COUNTRY_CODE":"US","ARG_OF_PERICENTER":"53.5899","PERIOD":"95.435","OBJECT_ID":"2022-051BD","PERIAPSIS":"537.907","MEAN_ANOMALY":"42.3556","INCLINATION":"53.2199","REF_FRAME":"TEME","APOAPSIS":"541.373","MEAN_MOTION_DOT":"-0.00041617","DECAY_DATE":null,"GP_ID":"211138657","CLASSIFICATION_TYPE":"U","RCS_SIZE":"LARGE","OBJECT_TYPE":"PAYLOAD","MEAN_MOTION":"15.08874432","ECCENTRICITY":"0.00025050","RA_OF_ASC_NODE":"149.1298","EPOCH":"2022-08-27T22:00:00.999936","TLE_LINE2":"2 52587  53.2199 149.1298 0002505  53.5899  42.3556 15.08874432  1304","MEAN_ELEMENT_THEORY":"SGP4","TIME_SYSTEM":"UTC","SITE":"AFWTR","SEMIMAJOR_AXIS":"6917.775","EPHEMERIS_TYPE":"0","FILE":"3548882","REV_AT_EPOCH":"130","NORAD_CAT_ID":"52587","ELEMENT_SET_NO":"999","LAUNCH_DATE":"2022-05-13"},{"TLE_LINE2":"2 52588  53.2201 149.1312 0002440  66.2847  49.6901 15.08864828  1300","EPOCH":"2022-08-27T22:00:00.999936","SEMIMAJOR_AXIS":"6917.805","SITE":"AFWTR","TIME_SYSTEM":"UTC","MEAN_ELEMENT_THEORY":"SGP4","LAUNCH_DATE":"2022-05-13","ELEMENT_SET_NO":"999","NORAD_CAT_ID":"52588","FILE":"3548882","REV_AT_EPOCH":"130","EPHEMERIS_TYPE":"0","DECAY_DATE":null,"MEAN_MOTION_DOT":"-0.00025584","APOAPSIS":"541.357","OBJECT_TYPE":"PAYLOAD","RCS_SIZE":"LARGE","CLASSIFICATION_TYPE":"U","GP_ID":"211138285","MEAN_MOTION":"15.08864828","RA_OF_ASC_NODE":"149.1312","ECCENTRICITY":"0.00024400","PERIOD":"95.436","OBJECT_ID":"2022-051BE","ARG_OF_PERICENTER":"66.2847","MEAN_MOTION_DDOT":"0.0000000000000","COUNTRY_CODE":"US","MEAN_ANOMALY":"49.6901","PERIAPSIS":"537.982","REF_FRAME":"TEME","INCLINATION":"53.2201","CENTER_NAME":"EARTH","OBJECT_NAME":"STARLINK-3917","TLE_LINE1":"1 52588U 22051BE  22239.91667824 -.00025584  00000-0 -15939-2 0  9994","BSTAR":"-0.00159390000000"},{"MEAN_ANOMALY":"215.1156","PERIAPSIS":"538.692","INCLINATION":"53.2152","REF_FRAME":"TEME","MEAN_MOTION_DDOT":"0.0000000000000","COUNTRY_CODE":"US","PERIOD":"95.437","ARG_OF_PERICENTER":"53.3858","OBJECT_ID":"2022-052A","TLE_LINE1":"1 52598U 22052A   22239.91667824 -.00039399  00000-0 -24704-2 0  9995","OBJECT_NAME":"STARLINK-4019","BSTAR":"-0.00247040000000","CENTER_NAME":"EARTH","MEAN_ELEMENT_THEORY":"SGP4","SEMIMAJOR_AXIS":"6917.855","SITE":"AFETR","TIME_SYSTEM":"UTC","REV_AT_EPOCH":"130","FILE":"3548882","EPHEMERIS_TYPE":"0","NORAD_CAT_ID":"52598","ELEMENT_SET_NO":"999","LAUNCH_DATE":"2022-05-14","EPOCH":"2022-08-27T22:00:00.999936","TLE_LINE2":"2 52598  53.2152 314.1345 0001486  53.3858 215.1156 15.08848269  1307","MEAN_MOTION":"15.08848269","ECCENTRICITY":"0.00014860","RA_OF_ASC_NODE":"314.1345","APOAPSIS":"540.748","MEAN_MOTION_DOT":"-0.00039399","DECAY_DATE":null,"CLASSIFICATION_TYPE":"U","GP_ID":"211139251","OBJECT_TYPE":"PAYLOAD","RCS_SIZE":"LARGE"},{"TLE_LINE1":"1 52599U 22052B   22239.91667824 -.00041992  00000-0 -26348-2 0  9994","OBJECT_NAME":"STARLINK-4024","BSTAR":"-0.00263480000000","CENTER_NAME":"EARTH","MEAN_ANOMALY":"336.6845","PERIAPSIS":"538.588","INCLINATION":"53.2138","REF_FRAME":"TEME","MEAN_MOTION_DDOT":"0.0000000000000","COUNTRY_CODE":"US","PERIOD":"95.437","OBJECT_ID":"2022-052B","ARG_OF_PERICENTER":"54.0938","MEAN_MOTION":"15.08853120","ECCENTRICITY":"0.00016150","RA_OF_ASC_NODE":"309.1283","MEAN_MOTION_DOT":"-0.00041992","APOAPSIS":"540.823","DECAY_DATE":null,"GP_ID":"211138658","CLASSIFICATION_TYPE":"U","OBJECT_TYPE":"PAYLOAD","RCS_SIZE":"LARGE","MEAN_ELEMENT_THEORY":"SGP4","SITE":"AFETR","TIME_SYSTEM":"UTC","SEMIMAJOR_AXIS":"6917.840","REV_AT_EPOCH":"130","FILE":"3548882","EPHEMERIS_TYPE":"0","NORAD_CAT_ID":"52599","ELEMENT_SET_NO":"999","LAUNCH_DATE":"2022-05-14","EPOCH":"2022-08-27T22:00:00.999936","TLE_LINE2":"2 52599  53.2138 309.1283 0001615  54.0938 336.6845 15.08853120  1304"},{"TLE_LINE2":"2 52600  53.2175 309.1277 0001551  52.3268  43.6215 15.08841358  1303","EPOCH":"2022-08-27T22:00:00.999936","SITE":"AFETR","SEMIMAJOR_AXIS":"6917.876","TIME_SYSTEM":"UTC","MEAN_ELEMENT_THEORY":"SGP4","LAUNCH_DATE":"2022-05-14","ELEMENT_SET_NO":"999","NORAD_CAT_ID":"52600","EPHEMERIS_TYPE":"0","FILE":"3548882","REV_AT_EPOCH":"130","DECAY_DATE":null,"MEAN_MOTION_DOT":"-0.00015682","APOAPSIS":"540.814","OBJECT_TYPE":"PAYLOAD","RCS_SIZE":"LARGE","CLASSIFICATION_TYPE":"U","GP_ID":"211138286","MEAN_MOTION":"15.08841358","RA_OF_ASC_NODE":"309.1277","ECCENTRICITY":"0.00015510","OBJECT_ID":"2022-052C","PERIOD":"95.437","ARG_OF_PERICENTER":"52.3268","MEAN_MOTION_DDOT":"0.0000000000000","COUNTRY_CODE":"US","MEAN_ANOMALY":"43.6215","PERIAPSIS":"538.668","REF_FRAME":"TEME","INCLINATION":"53.2175","CENTER_NAME":"EARTH","OBJECT_NAME":"STARLINK-4026","TLE_LINE1":"1 52600U 22052C   22239.91667824 -.00015682  00000-0 -96931-3 0  9990","BSTAR":"-0.00096931000000"},{"COUNTRY_CODE":"US","MEAN_MOTION_DDOT":"0.0000000000000","OBJECT_ID":"2022-052D","PERIOD":"95.437","ARG_OF_PERICENTER":"53.6467","PERIAPSIS":"538.632","MEAN_ANOMALY":"2.3289","INCLINATION":"53.2146","REF_FRAME":"TEME","CENTER_NAME":"EARTH","OBJECT_NAME":"STARLINK-4027","TLE_LINE1":"1 52601U 22052D   22239.91667824 -.00016835  00000-0 -10419-2 0  9998","BSTAR":"-0.00104190000000","TLE_LINE2":"2 52601  53.2146 309.1305 0001574  53.6467   2.3289 15.08848007  1305","EPOCH":"2022-08-27T22:00:00.999936","MEAN_ELEMENT_THEORY":"SGP4","TIME_SYSTEM":"UTC","SITE":"AFETR","SEMIMAJOR_AXIS":"6917.856","NORAD_CAT_ID":"52601","FILE":"3548882","EPHEMERIS_TYPE":"0","REV_AT_EPOCH":"130","LAUNCH_DATE":"2022-05-14","ELEMENT_SET_NO":"999","APOAPSIS":"540.810","MEAN_MOTION_DOT":"-0.00016835","DECAY_DATE":null,"CLASSIFICATION_TYPE":"U","GP_ID":"211138842","RCS_SIZE":"LARGE","OBJECT_TYPE":"PAYLOAD","MEAN_MOTION":"15.08848007","ECCENTRICITY":"0.00015740","RA_OF_ASC_NODE":"309.1305"},{"TIME_SYSTEM":"UTC","SITE":"AFETR","SEMIMAJOR_AXIS":"6917.832","MEAN_ELEMENT_THEORY":"SGP4","ELEMENT_SET_NO":"999","LAUNCH_DATE":"2022-05-14","FILE":"3548882","REV_AT_EPOCH":"130","EPHEMERIS_TYPE":"0","NORAD_CAT_ID":"52602","EPOCH":"2022-08-27T22:00:00.999936","TLE_LINE2":"2 52602  53.2157 309.1360 0001645  51.6534  24.3027 15.08855764  1303","MEAN_MOTION":"15.08855764","RA_OF_ASC_NODE":"309.1360","ECCENTRICITY":"0.00016450","DECAY_DATE":null,"APOAPSIS":"540.835","MEAN_MOTION_DOT":"-0.00016211","OBJECT_TYPE":"PAYLOAD","RCS_SIZE":"LARGE","CLASSIFICATION_TYPE":"U","GP_ID":"211139095","PERIAPSIS":"538.559","MEAN_ANOMALY":"24.3027","REF_FRAME":"TEME","INCLINATION":"53.2157","PERIOD":"95.437","OBJECT_ID":"2022-052E","ARG_OF_PERICENTER":"51.6534","MEAN_MOTION_DDOT":"0.0000000000000","COUNTRY_CODE":"US","TLE_LINE1":"1 52602U 22052E   22239.91667824 -.00016211  00000-0 -10023-2 0  9998","OBJECT_NAME":"STARLINK-4012","BSTAR":"-0.00100230000000","CENTER_NAME":"EARTH"},{"REF_FRAME":"TEME","INCLINATION":"53.2184","MEAN_ANOMALY":"105.5326","PERIAPSIS":"538.569","OBJECT_ID":"2022-052F","PERIOD":"95.437","ARG_OF_PERICENTER":"50.4638","MEAN_MOTION_DDOT":"0.0000000000000","COUNTRY_CODE":"US","BSTAR":"-0.00330420000000","TLE_LINE1":"1 52603U 22052F   22239.91667824 -.00052515  00000-0 -33042-2 0  9992","OBJECT_NAME":"STARLINK-4016","CENTER_NAME":"EARTH","ELEMENT_SET_NO":"999","LAUNCH_DATE":"2022-05-14","FILE":"3548882","EPHEMERIS_TYPE":"0","REV_AT_EPOCH":"130","NORAD_CAT_ID":"52603","SITE":"AFETR","TIME_SYSTEM":"UTC","SEMIMAJOR_AXIS":"6917.830","MEAN_ELEMENT_THEORY":"SGP4","EPOCH":"2022-08-27T22:00:00.999936","TLE_LINE2":"2 52603  53.2184 309.1284 0001628  50.4638 105.5326 15.08856326  1301","RA_OF_ASC_NODE":"309.1284","ECCENTRICITY":"0.00016280","MEAN_MOTION":"15.08856326","RCS_SIZE":"LARGE","OBJECT_TYPE":"PAYLOAD","GP_ID":"211138248","CLASSIFICATION_TYPE":"U","DECAY_DATE":null,"APOAPSIS":"540.822","MEAN_MOTION_DOT":"-0.00052515"},{"TIME_SYSTEM":"UTC","SITE":"AFETR","SEMIMAJOR_AXIS":"6917.842","MEAN_ELEMENT_THEORY":"SGP4","ELEMENT_SET_NO":"999","LAUNCH_DATE":"2022-05-14","FILE":"3548882","REV_AT_EPOCH":"130","EPHEMERIS_TYPE":"0","NORAD_CAT_ID":"52604","EPOCH":"2022-08-27T22:00:00.999936","TLE_LINE2":"2 52604  53.2163 309.1216 0001741  50.1428  65.8845 15.08852437  1307","MEAN_MOTION":"15.08852437","RA_OF_ASC_NODE":"309.1216","ECCENTRICITY":"0.00017410","DECAY_DATE":null,"APOAPSIS":"540.912","MEAN_MOTION_DOT":"-0.00050827","OBJECT_TYPE":"PAYLOAD","RCS_SIZE":"LARGE","CLASSIFICATION_TYPE":"U","GP_ID":"211138697","PERIAPSIS":"538.503","MEAN_ANOMALY":"65.8845","REF_FRAME":"TEME","INCLINATION":"53.2163","PERIOD":"95.437","OBJECT_ID":"2022-052G","ARG_OF_PERICENTER":"50.1428","MEAN_MOTION_DDOT":"0.0000000000000","COUNTRY_CODE":"US","TLE_LINE1":"1 52604U 22052G   22239.91667824 -.00050827  00000-0 -31970-2 0  9995","OBJECT_NAME":"STARLINK-4013","BSTAR":"-0.00319700000000","CENTER_NAME":"EARTH"}];
